GLOBALSTAR M067         
1 32263U 07048A   24173.73381922 -.00000081  00000+0  12120-3 0  9995
2 32263  51.9749  10.6285 0000434  11.8133  67.8095 12.40647854764747
GLOBALSTAR M070         
1 32264U 07048B   24174.17867133 -.00000109  00000+0 -27776-4 0  9994
2 32264  51.9728 145.2138 0000605  28.4150  42.5927 12.62294619769188
GLOBALSTAR M066         
1 32265U 07048C   24173.91793137 -.00000080  00000+0  13378-3 0  9997
2 32265  51.9695   7.9767 0000987 101.8659  38.6604 12.62264111770439
GLOBALSTAR M068         
1 32266U 07048D   24173.95914385 -.00000067  00000+0  20451-3 0  9997
2 32266  51.9903 320.3244 0001602  87.3789  62.8747 12.62792055772332
GLOBALSTAR M079         
1 37188U 10054A   24174.13113076 -.00000113  00000+0 -53785-4 0  9995
2 37188  52.0015 155.8531 0000133 274.9447 164.3505 12.62271155631662
GLOBALSTAR M074         
1 37189U 10054B   24174.24251593 -.00000126  00000+0 -12438-3 0  9998
2 37189  51.9990 154.8935 0000214  20.0143  84.7768 12.62269764631673
GLOBALSTAR M076         
1 37190U 10054C   24174.10400542 -.00000112  00000+0 -45022-4 0  9996
2 37190  52.0012 155.4521 0000457 310.7550 125.4364 12.62262272631661
GLOBALSTAR M077         
1 37191U 10054D   24173.31896047 -.00000116  00000+0 -66180-4 0  9990
2 37191  52.0065 114.5940 0000531  30.5230 136.2148 12.62273909631575
